{
  "norad_id": 59033,
  "name": "STARLINK-31210",
  "history": [
    {
      "epoch": "2026-03-28T19:46:24.642912Z",
      "apogee_km": 483.85894220795126,
      "perigee_km": 482.2143188887085,
      "latitude_deg": -4.039556551303426e-05,
      "longitude_deg": 152.74397294585748,
      "height_km": 482.7561282149497,
      "semi_major_axis_km": 6861.17363054833,
      "eccentricity": 0.00011985,
      "inclination_deg": 43.0006,
      "raan_deg": 275.5855,
      "arg_perigee_deg": 273.9825,
      "mean_anomaly_deg": 86.0889,
      "mean_motion_rev_day": 15.27584163
    },
    {
      "epoch": "2026-03-30T04:43:42.647232Z",
      "apogee_km": 483.84256947084214,
      "perigee_km": 482.3040116752836,
      "latitude_deg": -3.058018427680517e-05,
      "longitude_deg": 9.310752269346981,
      "height_km": 482.701583589321,
      "semi_major_axis_km": 6861.210290573063,
      "eccentricity": 0.00011212,
      "inclination_deg": 42.9978,
      "raan_deg": 267.8307,
      "arg_perigee_deg": 281.0872,
      "mean_anomaly_deg": 78.9853,
      "mean_motion_rev_day": 15.2757192
    },
    {
      "epoch": "2026-03-30T20:25:16.095936Z",
      "apogee_km": 483.9315449065498,
      "perigee_km": 482.15532251587047,
      "latitude_deg": -3.611052725670759e-05,
      "longitude_deg": 129.58420433478236,
      "height_km": 482.7027740488173,
      "semi_major_axis_km": 6861.18043371121,
      "eccentricity": 0.00012944,
      "inclination_deg": 42.999,
      "raan_deg": 264.138,
      "arg_perigee_deg": 277.5814,
      "mean_anomaly_deg": 82.489,
      "mean_motion_rev_day": 15.27581891
    },
    {
      "epoch": "2026-03-31T19:57:37.105344Z",
      "apogee_km": 483.94297885118067,
      "perigee_km": 482.159069964835,
      "latitude_deg": -2.6771242305085494e-06,
      "longitude_deg": 129.98978279936293,
      "height_km": 482.66634107644165,
      "semi_major_axis_km": 6861.188024408008,
      "eccentricity": 0.00013,
      "inclination_deg": 42.9994,
      "raan_deg": 258.5978,
      "arg_perigee_deg": 280.4147,
      "mean_anomaly_deg": 79.6558,
      "mean_motion_rev_day": 15.27579356
    },
    {
      "epoch": "2026-04-01T17:55:48.256320Z",
      "apogee_km": 483.9254490990161,
      "perigee_km": 482.1607535769517,
      "latitude_deg": -1.7708613387268692e-05,
      "longitude_deg": 154.37073937245026,
      "height_km": 482.7964754647961,
      "semi_major_axis_km": 6861.180101337984,
      "eccentricity": 0.0001286,
      "inclination_deg": 42.9988,
      "raan_deg": 253.4275,
      "arg_perigee_deg": 271.5004,
      "mean_anomaly_deg": 88.57,
      "mean_motion_rev_day": 15.27582002
    },
    {
      "epoch": "2026-04-02T19:02:20.332032Z",
      "apogee_km": 483.88331305476186,
      "perigee_km": 482.2709277364693,
      "latitude_deg": -5.774049476095929e-06,
      "longitude_deg": 130.7978178778949,
      "height_km": 482.7488028980432,
      "semi_major_axis_km": 6861.214120395615,
      "eccentricity": 0.0001175,
      "inclination_deg": 43.0008,
      "raan_deg": 247.5194,
      "arg_perigee_deg": 277.4783,
      "mean_anomaly_deg": 82.5935,
      "mean_motion_rev_day": 15.27570641
    }
  ]
}